[{"OBJECT_NAME":"STARLINK-2620","OBJECT_ID":"2021-040AB","EPOCH":"2026-03-09T14:50:18.769920","MEAN_MOTION":15.3020834,"ECCENTRICITY":0.0002071,"INCLINATION":53.1616,"RA_OF_ASC_NODE":178.4535,"ARG_OF_PERICENTER":50.3086,"MEAN_ANOMALY":309.8098,"EPHEMERIS_TYPE":0,"CLASSIFICATION_TYPE":"U","NORAD_CAT_ID":48453,"ELEMENT_SET_NO":999,"REV_AT_EPOCH":26667,"BSTAR":0.00047094,"MEAN_MOTION_DOT":0.00013618,"MEAN_MOTION_DDOT":0},{"OBJECT_NAME":"OKEAN-1","OBJECT_ID":"1988-056A","EPOCH":"2026-03-09T21:19:04.260000","MEAN_MOTION":15.31672069,"ECCENTRICITY":0.00129431,"INCLINATION":82.4671,"RA_OF_ASC_NODE":262.7586,"ARG_OF_PERICENTER":168.0696,"MEAN_ANOMALY":192.0855,"EPHEMERIS_TYPE":0,"CLASSIFICATION_TYPE":"U","NORAD_CAT_ID":19274,"ELEMENT_SET_NO":999,"REV_AT_EPOCH":3511,"BSTAR":0.00038371192,"MEAN_MOTION_DOT":0.00011798,"MEAN_MOTION_DDOT":0}]
